OBJECT_NAME,OBJECT_ID,EPOCH,MEAN_MOTION,ECCENTRICITY,INCLINATION,RA_OF_ASC_NODE,ARG_OF_PERICENTER,MEAN_ANOMALY,EPHEMERIS_TYPE,CLASSIFICATION_TYPE,NORAD_CAT_ID,ELEMENT_SET_NO,REV_AT_EPOCH,BSTAR,MEAN_MOTION_DOT,MEAN_MOTION_DDOT,SEMIMAJOR_AXIS,DEBRIS_TYPE,ORBITAL_PERIOD,ORBITAL_PERIOD_HOURS,ALTITUDE,PERIGEE,APOGEE
FENGYUN 1C DEB,1999-025AJL,2024-12-31T12:35:37.715712,15.20699072,0.0013151,99.3724,86.0657,120.3176,7.985,0,U,30522,999,94715,0.013196,0.00302597,0.0,6881.867722365686,FENGYUN 1C,5681.60061861165,1.5782223940587916,510.86772236568595,6872.817378124003,6890.918066607369
FENGYUN 1C DEB,1999-025AJM,2024-12-31T16:37:06.170592,14.27038836,0.0246637,98.4281,350.1658,47.0298,7.5284,0,U,30523,999,93163,0.0010046,3.333e-05,0.0,7179.7829118371255,FENGYUN 1C,6054.498707558203,1.6818051965439453,808.7829118371255,7002.702900034448,7356.862923639804
FENGYUN 1C DEB,1999-025AJN,2024-12-30T17:22:11.473824,13.86440514,0.0213695,99.2905,171.8869,104.6227,257.8727,0,U,30524,999,89066,0.012277,0.00017022,0.0,7319.268529851956,FENGYUN 1C,6231.789031662242,1.7310525087950674,948.2685298519564,7162.859421003284,7475.677638700628
FENGYUN 1C DEB,1999-025AJP,2024-12-30T17:50:35.163456,13.57238962,0.0295333,98.619,286.9354,133.7503,228.8497,0,U,30525,999,88407,0.0035135,3.294e-05,0.0,7423.880326630121,FENGYUN 1C,6365.868524335335,1.7682968123153708,1052.880326630121,7204.6286417796555,7643.132011480587
FENGYUN 1C DEB,1999-025AJQ,2024-12-31T17:47:39.110496,13.49078662,0.0309886,99.5562,96.9821,48.2518,314.4671,0,U,30526,999,87991,0.001529,1.248e-05,0.0,7453.787246160009,FENGYUN 1C,6404.374356784068,1.7789928768844634,1082.787246160009,7222.804814703655,7684.769677616363
FENGYUN 1C DEB,1999-025AJR,2024-12-31T09:03:22.787712,13.29972986,0.0412204,100.0911,50.4881,329.5302,158.1775,0,U,30527,999,86750,0.0035606,2.612e-05,0.0,7525.002146048648,FENGYUN 1C,6496.376151355425,1.8045489309320624,1154.0021460486478,7214.8185475876635,7835.185744509632
FENGYUN 1C DEB,1999-025AJS,2024-12-31T09:43:35.603616,14.12710267,0.0145659,98.2851,256.3239,145.229,276.3643,0,U,30528,999,92246,0.00091507,1.839e-05,0.0,7228.249037020329,FENGYUN 1C,6115.9071254894225,1.6988630904137285,857.2490370203286,7122.963084371994,7333.534989668663
FENGYUN 1C DEB,1999-025AJT,2024-12-31T13:33:41.109696,13.70021088,0.023639,98.466,322.6983,67.5268,295.0728,0,U,30529,999,89265,0.0043356,4.605e-05,0.0,7377.632305880598,FENGYUN 1C,6306.475764406163,1.7517988234461563,1006.6323058805983,7203.232455801887,7552.032155959309
FENGYUN 1C DEB,1999-025AJU,2024-12-31T09:25:15.284064,14.35966147,0.0101667,98.4413,46.5282,90.96,281.6203,0,U,30530,999,93813,0.0006865,2.071e-05,0.0,7149.994487785095,FENGYUN 1C,6016.858270822007,1.67134951967278,778.9944877850949,7077.3026388261305,7222.68633674406
FENGYUN 1C DEB,1999-025AJV,2024-12-31T12:40:05.739744,14.46554472,0.0034035,102.3172,25.6822,40.5216,319.8486,0,U,30531,999,92667,0.0083718,0.00030463,0.0,7115.061306201069,FENGYUN 1C,5972.81675556381,1.6591157654343918,744.0613062010689,7090.845195045414,7139.277417356723
FENGYUN 1C DEB,1999-025AJW,2024-12-31T11:33:02.109888,14.63444406,0.0078022,96.9833,88.1005,336.4493,23.3147,0,U,30532,999,92544,0.01258,0.00068637,0.0,7060.211133947782,FENGYUN 1C,5903.883162745412,1.6399675452070588,689.2111339477824,7005.125954638495,7115.296313257069
FENGYUN 1C DEB,1999-025AJX,2024-12-31T06:23:37.411872,14.42493723,0.0099247,98.8248,113.5957,110.9515,279.5755,0,U,30533,999,92806,0.007964,0.00028064,0.0,7128.408072169555,FENGYUN 1C,5989.630769573452,1.6637863248815146,757.4080721695555,7057.660760575694,7199.1553837634165
FENGYUN 1C DEB,1999-025AKD,2024-12-30T19:32:21.225984,14.52478446,0.0121129,98.8404,320.0571,247.3056,111.5295,0,U,30539,999,94324,0.0018473,8.252e-05,0.0,7095.7021473145405,FENGYUN 1C,5948.456455234285,1.652349015342857,724.7021473145405,7009.7526167743345,7181.651677854747
FENGYUN 1C DEB,1999-025AKE,2024-12-31T01:04:01.579008,14.27031714,0.0055042,98.8756,101.7311,349.9518,184.1181,0,U,30540,999,92331,0.0052453,0.00012953,0.0,7179.806800290743,FENGYUN 1C,6054.528924223588,1.6818135900621076,808.806800290743,7140.287707700583,7219.325892880904
FENGYUN 1C DEB,1999-025AKF,2024-12-31T20:09:53.171136,14.20852952,0.0018008,98.7227,51.7444,5.0751,355.0606,0,U,30541,999,92411,0.0035512,7.652e-05,0.0,7200.606619538222,FENGYUN 1C,6080.857822785706,1.6891271729960295,829.6066195382218,7187.639767137757,7213.573471938686
FENGYUN 1C DEB,1999-025AKG,2024-12-31T22:16:31.255392,14.06727096,0.0027608,98.8269,38.7215,223.121,259.1417,0,U,30542,999,92056,0.00041257,6.44e-06,0.0,7248.73026638629,FENGYUN 1C,6141.9196465078685,1.7060887906966302,877.7302663862902,7228.717971866851,7268.742560905729
FENGYUN 1C DEB,1999-025AKH,2024-12-31T19:53:46.277376,14.03384977,0.0071372,98.8453,20.0102,279.4962,255.3513,0,U,30543,999,91652,0.00065468,1.003e-05,0.0,7260.234125071171,FENGYUN 1C,6156.54644292046,1.710151789700128,889.2341250711706,7208.416382073713,7312.051868068629
FENGYUN 1C DEB,1999-025AKK,2024-12-26T05:24:00.435456,13.20470165,0.0472604,99.0495,254.8796,141.3043,222.2951,0,U,30545,999,86290,0.00060771,4.09e-06,0.0,7561.061651817757,FENGYUN 1C,6543.127605005269,1.817535445834797,1190.0616518177567,7203.722853728189,7918.400449907325
FENGYUN 1C DEB,1999-025AKL,2024-12-31T23:01:59.031264,14.79314734,0.010627,98.921,176.5885,179.5932,332.8481,0,U,30546,999,95338,0.0032857,0.00026933,0.0,7009.625021449048,FENGYUN 1C,5840.54534820672,1.6223737078351999,638.6250214490483,6935.133736346109,7084.116306551987
FENGYUN 1C DEB,1999-025AKM,2024-12-31T19:36:39.880800,14.36930848,0.0097211,98.9171,191.1744,156.5428,215.387,0,U,30547,999,93753,0.0010397,3.202e-05,0.0,7146.793972431579,FENGYUN 1C,6012.818779848035,1.6702274388466765,775.7939724315793,7077.319273546174,7216.268671316983
FENGYUN 1C DEB,1999-025AKP,2024-12-31T04:09:34.603488,13.95497325,0.0298559,98.4469,147.3004,147.2133,214.7953,0,U,30549,999,90454,0.0069403,0.00013677,0.0,7287.566024338192,FENGYUN 1C,6191.344571869648,1.7198179366304576,916.5660243381917,7069.989181872153,7505.142866804231
FENGYUN 1C DEB,1999-025AKQ,2024-12-30T22:52:31.110240,13.98967576,0.0130064,99.078,257.9394,175.5888,196.0666,0,U,30550,999,90540,0.0053674,8.299e-05,0.0,7275.509442625096,FENGYUN 1C,6175.986446305858,1.7155517906405162,904.5094426250962,7180.881256610537,7370.137628639656
FENGYUN 1C DEB,1999-025AKS,2024-12-31T06:20:20.000832,14.43253859,0.0017002,98.8241,115.9527,213.8102,146.2004,0,U,30552,999,92634,0.0082345,0.00027832,0.0,7125.904915699424,FENGYUN 1C,5986.476138150663,1.6629100383751843,754.9049156994242,7113.789452161752,7138.020379237096
FENGYUN 1C DEB,1999-025AKT,2024-12-30T09:31:46.898976,14.58598392,0.0026743,99.1476,55.8262,130.6809,229.6717,0,U,30553,999,93386,0.0058302,0.00027322,0.0,7075.840277135077,FENGYUN 1C,5923.498089388654,1.6454161359412929,704.8402771350766,7056.917357481934,7094.763196788219
FENGYUN 1C DEB,1999-025AKV,2024-12-31T10:13:09.857856,14.18255416,0.0045611,98.7868,57.1973,187.6501,184.4895,0,U,30555,999,92022,0.0037785,7.819e-05,0.0,7209.39588274114,FENGYUN 1C,6091.994919057203,1.6922208108492232,838.3958827411398,7176.513107180369,7242.2786583019115
FENGYUN 1C DEB,1999-025AKW,2024-12-31T05:43:35.559264,14.00712775,0.0069829,98.7557,7.1118,124.131,247.4756,0,U,30556,999,91405,0.0011332,1.683e-05,0.0,7269.464972436039,FENGYUN 1C,6168.291560128992,1.7134143222580533,898.4649724360388,7218.703025480015,7320.226919392062
FENGYUN 1C DEB,1999-025AKX,2024-12-30T15:24:37.794240,14.0854421,0.0069779,98.9433,67.5015,130.9191,229.8049,0,U,30557,999,91410,0.0037505,6.548e-05,0.0,7242.494701631089,FENGYUN 1C,6133.9961691350545,1.7038878247597373,871.4947016310889,7191.9572978525775,7293.032105409601
FENGYUN 1C DEB,1999-025AKY,2024-12-27T17:09:50.984352,13.26508338,0.042579,99.4509,166.7263,38.8006,324.2891,0,U,30558,999,86113,0.0037258,2.66e-05,0.0,7538.099260674289,FENGYUN 1C,6513.3437466545065,1.809262151848474,1167.0992606742893,7217.134532254038,7859.0639890945395
FENGYUN 1C DEB,1999-025ALA,2024-12-31T06:31:35.437152,14.16340683,0.0117367,98.6473,3.2823,126.4055,247.1158,0,U,30560,999,92463,0.0007091,1.464e-05,0.0,7215.891946850688,FENGYUN 1C,6100.230609698135,1.6945085026939264,844.8919468506883,7131.201187838085,7300.58270586329
FENGYUN 1C DEB,1999-025ALB,2024-12-31T16:50:41.411616,14.10670373,0.0060554,98.724,12.6937,17.0023,46.275,0,U,30561,999,92098,0.0010803,1.92e-05,0.0,7235.215611579914,FENGYUN 1C,6124.751007439896,1.70131972428886,864.2156115799144,7191.403486965553,7279.027736194275
FENGYUN 1C DEB,1999-025ALC,2024-12-31T03:32:12.390432,14.19986521,0.0063295,98.7879,69.876,185.5826,204.1268,0,U,30562,999,92075,0.0044936,9.717e-05,0.0,7203.535377155571,FENGYUN 1C,6084.568170487136,1.6901578251353155,832.535377155571,7157.9405999858645,7249.1301543252775
FENGYUN 1C DEB,1999-025ALE,2024-12-31T19:36:09.023904,14.04354423,0.0205461,98.8118,22.4231,9.5795,164.1525,0,U,30564,999,91437,0.0026055,4.964e-05,0.0,7256.892511373,FENGYUN 1C,6152.296490611303,1.7089712473920287,885.8925113730002,7107.791672145079,7405.993350600921
FENGYUN 1C DEB,1999-025ALF,2024-12-29T16:00:50.529600,14.06660986,0.0147095,98.4741,250.0503,268.2377,117.5073,0,U,30565,999,91027,0.0052025,9.491e-05,0.0,7248.9573809548065,FENGYUN 1C,6142.208303342653,1.706168973150737,877.9573809548065,7142.328842359651,7355.585919549961
FENGYUN 1C DEB,1999-025ALG,2024-12-31T18:58:13.791360,14.09516365,0.0068215,99.2427,40.1044,69.6588,351.5807,0,U,30566,999,91505,0.0032371,5.74e-05,0.0,7239.164180036376,FENGYUN 1C,6129.765501656564,1.7027126393490455,868.1641800363759,7189.782221582257,7288.546138490495
FENGYUN 1C DEB,1999-025ALH,2024-12-29T18:01:33.085632,14.08310829,0.0110736,98.7539,359.0599,92.26,80.7216,0,U,30567,999,91874,0.00072517,1.27e-05,0.0,7243.294815706499,FENGYUN 1C,6135.012676379385,1.7041701878831625,872.2948157064993,7163.085466235291,7323.504165177707
